{
  "type": "FeatureCollection",
  "features": [
    {
      "type": "Feature",
      "properties": {
        "norad_id": 54259,
        "name": "EUTELSAT 10B",
        "group": "eutelsat",
        "lat": 0.05764467673732692,
        "lon": 154.59996543500537,
        "alt_km": 35785.196988130025,
        "timestamp": "2025-12-20T03:42:47.063699+00:00",
        "meta_object_name": "EUTELSAT 10B",
        "meta_object_id": "2022-157A",
        "meta_epoch": "2025-12-19T03:02:18.037824",
        "meta_mean_motion": 1.00249724,
        "meta_eccentricity": 0.000237,
        "meta_inclination": 0.0621,
        "meta_ra_of_asc_node": 98.3483,
        "meta_arg_of_pericenter": 10.4873,
        "meta_mean_anomaly": 34.7012,
        "meta_ephemeris_type": 0,
        "meta_classification_type": "U",
        "meta_norad_cat_id": 54259,
        "meta_element_set_no": 999,
        "meta_rev_at_epoch": 1122,
        "meta_bstar": 0,
        "meta_mean_motion_dot": 9e-07,
        "meta_mean_motion_ddot": 0,
        "tle_line1": "1 54259U 22157A   25353.12659766  .00000090  00000+0  00000+0 0  9999",
        "tle_line2": "2 54259   0.0621  98.3483 0002370  10.4873  34.7012  1.00249724 11228"
      },
      "geometry": {
        "type": "Point",
        "coordinates": [
          154.59996543500537,
          0.05764467673732692
        ]
      }
    },
    {
      "type": "Feature",
      "properties": {
        "norad_id": 59346,
        "name": "EUTELSAT 36D",
        "group": "eutelsat",
        "lat": 0.010103051475164585,
        "lon": -179.48009731054313,
        "alt_km": 35787.815583358286,
        "timestamp": "2025-12-20T03:42:47.063710+00:00",
        "meta_object_name": "EUTELSAT 36D",
        "meta_object_id": "2024-059A",
        "meta_epoch": "2025-12-19T13:26:01.591296",
        "meta_mean_motion": 1.00272156,
        "meta_eccentricity": 4.61e-05,
        "meta_inclination": 0.0261,
        "meta_ra_of_asc_node": 21.22,
        "meta_arg_of_pericenter": 346.6706,
        "meta_mean_anomaly": 317.8615,
        "meta_ephemeris_type": 0,
        "meta_classification_type": "U",
        "meta_norad_cat_id": 59346,
        "meta_element_set_no": 999,
        "meta_rev_at_epoch": 634,
        "meta_bstar": 0,
        "meta_mean_motion_dot": 0,
        "meta_mean_motion_ddot": 0,
        "tle_line1": "1 59346U 24059A   25353.55974064  .00000000  00000+0  00000+0 0  9993",
        "tle_line2": "2 59346   0.0261  21.2200 0000461 346.6706 317.8615  1.00272156  6346"
      },
      "geometry": {
        "type": "Point",
        "coordinates": [
          -179.48009731054313,
          0.010103051475164585
        ]
      }
    }
  ]
}